{
  "type": "FeatureCollection",
  "features": [
    {
      "type": "Feature",
      "properties": {
        "norad_id": 66800,
        "name": "STARLINK-35996",
        "group": "last-30-days",
        "lat": -35.368794829554076,
        "lon": 36.780986459045366,
        "alt_km": 417.42576955612276,
        "timestamp": "2025-12-26T22:28:04.498057+00:00",
        "meta_object_name": "STARLINK-35996",
        "meta_object_id": "2025-278K",
        "meta_epoch": "2025-12-26T18:00:02.998944",
        "meta_mean_motion": 15.50512312,
        "meta_eccentricity": 0.0001432,
        "meta_inclination": 42.9998,
        "meta_ra_of_asc_node": 168.2499,
        "meta_arg_of_pericenter": 276.9319,
        "meta_mean_anomaly": 0.9464,
        "meta_ephemeris_type": 0,
        "meta_classification_type": "U",
        "meta_norad_cat_id": 66800,
        "meta_element_set_no": 999,
        "meta_rev_at_epoch": 500,
        "meta_bstar": 0.0012042,
        "meta_mean_motion_dot": 0.00070776,
        "meta_mean_motion_ddot": 0,
        "tle_line1": "1 66800U 25278K   25360.75003471  .00070776  00000+0  12042-2 0  9994",
        "tle_line2": "2 66800  42.9998 168.2499 0001432 276.9319   0.9464 15.50512312  5002"
      },
      "geometry": {
        "type": "Point",
        "coordinates": [
          36.780986459045366,
          -35.368794829554076
        ]
      }
    },
    {
      "type": "Feature",
      "properties": {
        "norad_id": 66801,
        "name": "STARLINK-36080",
        "group": "last-30-days",
        "lat": -37.50095211040382,
        "lon": 42.58244592338409,
        "alt_km": 427.08392387764707,
        "timestamp": "2025-12-26T22:28:04.498068+00:00",
        "meta_object_name": "STARLINK-36080",
        "meta_object_id": "2025-278L",
        "meta_epoch": "2025-12-26T18:00:02.998944",
        "meta_mean_motion": 15.48085876,
        "meta_eccentricity": 0.0001388,
        "meta_inclination": 42.9995,
        "meta_ra_of_asc_node": 168.2312,
        "meta_arg_of_pericenter": 263.6673,
        "meta_mean_anomaly": 21.2808,
        "meta_ephemeris_type": 0,
        "meta_classification_type": "U",
        "meta_norad_cat_id": 66801,
        "meta_element_set_no": 999,
        "meta_rev_at_epoch": 521,
        "meta_bstar": -0.043301,
        "meta_mean_motion_dot": -0.02068003,
        "meta_mean_motion_ddot": 0,
        "tle_line1": "1 66801U 25278L   25360.75003471 -.02068003  00000+0 -43301-1 0  9990",
        "tle_line2": "2 66801  42.9995 168.2312 0001388 263.6673  21.2808 15.48085876  5218"
      },
      "geometry": {
        "type": "Point",
        "coordinates": [
          42.58244592338409,
          -37.50095211040382
        ]
      }
    },
    {
      "type": "Feature",
      "properties": {
        "norad_id": 66802,
        "name": "STARLINK-35604",
        "group": "last-30-days",
        "lat": -34.50561527275268,
        "lon": 34.70239021624095,
        "alt_km": 417.3169937818511,
        "timestamp": "2025-12-26T22:28:04.498080+00:00",
        "meta_object_name": "STARLINK-35604",
        "meta_object_id": "2025-278M",
        "meta_epoch": "2025-12-26T18:00:02.998944",
        "meta_mean_motion": 15.50510003,
        "meta_eccentricity": 0.0001559,
        "meta_inclination": 42.9998,
        "meta_ra_of_asc_node": 168.2549,
        "meta_arg_of_pericenter": 274.7433,
        "meta_mean_anomaly": 1.2212,
        "meta_ephemeris_type": 0,
        "meta_classification_type": "U",
        "meta_norad_cat_id": 66802,
        "meta_element_set_no": 999,
        "meta_rev_at_epoch": 521,
        "meta_bstar": 0.001201,
        "meta_mean_motion_dot": 0.00070579,
        "meta_mean_motion_ddot": 0,
        "tle_line1": "1 66802U 25278M   25360.75003471  .00070579  00000+0  12010-2 0  9992",
        "tle_line2": "2 66802  42.9998 168.2549 0001559 274.7433   1.2212 15.50510003  5216"
      },
      "geometry": {
        "type": "Point",
        "coordinates": [
          34.70239021624095,
          -34.50561527275268
        ]
      }
    },
    {
      "type": "Feature",
      "properties": {
        "norad_id": 66803,
        "name": "STARLINK-35565",
        "group": "last-30-days",
        "lat": 4.562909387862385,
        "lon": -17.59560549716427,
        "alt_km": 443.5919921425375,
        "timestamp": "2025-12-26T22:28:04.498091+00:00",
        "meta_object_name": "STARLINK-35565",
        "meta_object_id": "2025-278N",
        "meta_epoch": "2025-12-26T18:00:02.998944",
        "meta_mean_motion": 15.40665161,
        "meta_eccentricity": 0.000183,
        "meta_inclination": 42.9999,
        "meta_ra_of_asc_node": 168.3902,
        "meta_arg_of_pericenter": 277.7376,
        "meta_mean_anomaly": 301.9229,
        "meta_ephemeris_type": 0,
        "meta_classification_type": "U",
        "meta_norad_cat_id": 66803,
        "meta_element_set_no": 999,
        "meta_rev_at_epoch": 529,
        "meta_bstar": 0.0010445,
        "meta_mean_motion_dot": 0.00043528,
        "meta_mean_motion_ddot": 0,
        "tle_line1": "1 66803U 25278N   25360.75003471  .00043528  00000+0  10445-2 0  9997",
        "tle_line2": "2 66803  42.9999 168.3902 0001830 277.7376 301.9229 15.40665161  5294"
      },
      "geometry": {
        "type": "Point",
        "coordinates": [
          -17.59560549716427,
          4.562909387862385
        ]
      }
    },
    {
      "type": "Feature",
      "properties": {
        "norad_id": 66804,
        "name": "STARLINK-36038",
        "group": "last-30-days",
        "lat": -3.9112058673258754,
        "lon": -8.505025521050076,
        "alt_km": 444.3659826852145,
        "timestamp": "2025-12-26T22:28:04.498103+00:00",
        "meta_object_name": "STARLINK-36038",
        "meta_object_id": "2025-278P",
        "meta_epoch": "2025-12-26T18:00:02.998944",
        "meta_mean_motion": 15.4065869,
        "meta_eccentricity": 0.0001785,
        "meta_inclination": 42.9999,
        "meta_ra_of_asc_node": 168.3602,
        "meta_arg_of_pericenter": 273.4069,
        "meta_mean_anomaly": 318.7007,
        "meta_ephemeris_type": 0,
        "meta_classification_type": "U",
        "meta_norad_cat_id": 66804,
        "meta_element_set_no": 999,
        "meta_rev_at_epoch": 521,
        "meta_bstar": 0.0009489,
        "meta_mean_motion_dot": 0.00039485,
        "meta_mean_motion_ddot": 0,
        "tle_line1": "1 66804U 25278P   25360.75003471  .00039485  00000+0  94890-3 0  9992",
        "tle_line2": "2 66804  42.9999 168.3602 0001785 273.4069 318.7007 15.40658690  5214"
      },
      "geometry": {
        "type": "Point",
        "coordinates": [
          -8.505025521050076,
          -3.9112058673258754
        ]
      }
    },
    {
      "type": "Feature",
      "properties": {
        "norad_id": 66805,
        "name": "STARLINK-36049",
        "group": "last-30-days",
        "lat": -20.269205184520768,
        "lon": 10.574610030808133,
        "alt_km": 444.27184733142985,
        "timestamp": "2025-12-26T22:28:04.498114+00:00",
        "meta_object_name": "STARLINK-36049",
        "meta_object_id": "2025-278Q",
        "meta_epoch": "2025-12-26T18:00:02.998944",
        "meta_mean_motion": 15.41874607,
        "meta_eccentricity": 0.000113,
        "meta_inclination": 42.9999,
        "meta_ra_of_asc_node": 168.3012,
        "meta_arg_of_pericenter": 277.6768,
        "meta_mean_anomaly": 338.6405,
        "meta_ephemeris_type": 0,
        "meta_classification_type": "U",
        "meta_norad_cat_id": 66805,
        "meta_element_set_no": 999,
        "meta_rev_at_epoch": 521,
        "meta_bstar": -0.041064,
        "meta_mean_motion_dot": -0.01600365,
        "meta_mean_motion_ddot": 0,
        "tle_line1": "1 66805U 25278Q   25360.75003471 -.01600365  00000+0 -41064-1 0  9990",
        "tle_line2": "2 66805  42.9999 168.3012 0001130 277.6768 338.6405 15.41874607  5218"
      },
      "geometry": {
        "type": "Point",
        "coordinates": [
          10.574610030808133,
          -20.269205184520768
        ]
      }
    },
    {
      "type": "Feature",
      "properties": {
        "norad_id": 66806,
        "name": "STARLINK-36069",
        "group": "last-30-days",
        "lat": -37.48611857174687,
        "lon": 42.53630037056717,
        "alt_km": 421.0484466265125,
        "timestamp": "2025-12-26T22:28:04.498126+00:00",
        "meta_object_name": "STARLINK-36069",
        "meta_object_id": "2025-278R",
        "meta_epoch": "2025-12-26T16:00:01.998720",
        "meta_mean_motion": 15.50556492,
        "meta_eccentricity": 0.0001065,
        "meta_inclination": 42.9998,
        "meta_ra_of_asc_node": 168.7212,
        "meta_arg_of_pericenter": 275.6414,
        "meta_mean_anomaly": 262.1457,
        "meta_ephemeris_type": 0,
        "meta_classification_type": "U",
        "meta_norad_cat_id": 66806,
        "meta_element_set_no": 999,
        "meta_rev_at_epoch": 498,
        "meta_bstar": -0.040584,
        "meta_mean_motion_dot": -0.02110881,
        "meta_mean_motion_ddot": 0,
        "tle_line1": "1 66806U 25278R   25360.66668980 -.02110881  00000+0 -40584-1 0  9999",
        "tle_line2": "2 66806  42.9998 168.7212 0001065 275.6414 262.1457 15.50556492  4987"
      },
      "geometry": {
        "type": "Point",
        "coordinates": [
          42.53630037056717,
          -37.48611857174687
        ]
      }
    }
  ]
}